<?xml version='1.0' encoding='UTF-8'?>
<osm version='0.6' generator='JOSM'>
  <node id='-26112' action='modify' visible='true' lat='53.20875468838' lon='6.5424232161' />
  <node id='-26113' action='modify' visible='true' lat='53.20887637952' lon='6.54284790811' />
  <node id='-26114' action='modify' visible='true' lat='53.2088205787' lon='6.54238290172' />
  <node id='-26115' action='modify' visible='true' lat='53.20884637144' lon='6.5425930503' />
  <node id='-26116' action='modify' visible='true' lat='53.20888730426' lon='6.54285141733' />
  <node id='-26117' action='modify' visible='true' lat='53.20882112932' lon='6.54248534523' />
  <node id='-26118' action='modify' visible='true' lat='53.20880371828' lon='6.54271477655' />
  <node id='-26119' action='modify' visible='true' lat='53.20878184479' lon='6.54238053008' />
  <node id='-26120' action='modify' visible='true' lat='53.20880282886' lon='6.54246270696' />
  <node id='-26121' action='modify' visible='true' lat='53.20889472678' lon='6.54291885529' />
  <node id='-26122' action='modify' visible='true' lat='53.20887913318' lon='6.54257209923' />
  <node id='-26123' action='modify' visible='true' lat='53.20883799489' lon='6.54286289885' />
  <node id='-26124' action='modify' visible='true' lat='53.20891713011' lon='6.54264093877'>
    <tag k='ele' v='0.0' />
  </node>
  <node id='-26125' action='modify' visible='true' lat='53.20886755215' lon='6.54281252215' />
  <node id='-26126' action='modify' visible='true' lat='53.20891281895' lon='6.5426447034'>
    <tag k='ele' v='0.0' />
  </node>
  <node id='-26127' action='modify' visible='true' lat='53.20889271719' lon='6.54284836989' />
  <node id='-26128' action='modify' visible='true' lat='53.20890072888' lon='6.54281685569' />
  <node id='-26129' action='modify' visible='true' lat='53.20889999356' lon='6.54283499401' />
  <node id='-26130' action='modify' visible='true' lat='53.20891155206' lon='6.54290938275' />
  <node id='-26131' action='modify' visible='true' lat='53.20881552793' lon='6.54246602782' />
  <node id='-26132' action='modify' visible='true' lat='53.20891799897' lon='6.5427357212' />
  <node id='-26133' action='modify' visible='true' lat='53.20893688016' lon='6.54281018681' />
  <node id='-26134' action='modify' visible='true' lat='53.20884631615' lon='6.54243129261' />
  <node id='-26135' action='modify' visible='true' lat='53.20881975119' lon='6.5424745365' />
  <node id='-26136' action='modify' visible='true' lat='53.20892105625' lon='6.54263731319'>
    <tag k='ele' v='0.0' />
  </node>
  <node id='-26137' action='modify' visible='true' lat='53.20880135718' lon='6.54237509378' />
  <node id='-26138' action='modify' visible='true' lat='53.20893861352' lon='6.54283899777' />
  <node id='-26139' action='modify' visible='true' lat='53.20880942295' lon='6.54246176013' />
  <node id='-26140' action='modify' visible='true' lat='53.2089252021' lon='6.54289152277' />
  <node id='-26141' action='modify' visible='true' lat='53.20890128076' lon='6.54282602879' />
  <node id='-26142' action='modify' visible='true' lat='53.20883641485' lon='6.54240269698' />
  <node id='-26143' action='modify' visible='true' lat='53.20892956375' lon='6.54278393406' />
  <node id='-26144' action='modify' visible='true' lat='53.20889701071' lon='6.54284275217' />
  <node id='-26145' action='modify' visible='true' lat='53.20879654936' lon='6.542499262' />
  <node id='-26146' action='modify' visible='true' lat='53.20884684785' lon='6.54288859856' />
  <node id='-26147' action='modify' visible='true' lat='53.20890455054' lon='6.54265200836'>
    <tag k='ele' v='0.0' />
  </node>
  <node id='-26148' action='modify' visible='true' lat='53.20879724987' lon='6.54246865233' />
  <node id='-26149' action='modify' visible='true' lat='53.20886036736' lon='6.54290781841' />
  <node id='-26150' action='modify' visible='true' lat='53.20878419366' lon='6.54262804081' />
  <node id='-26151' action='modify' visible='true' lat='53.20883188195' lon='6.54283283446' />
  <node id='-26152' action='modify' visible='true' lat='53.20879395862' lon='6.54247824' />
  <node id='-26153' action='modify' visible='true' lat='53.20889986251' lon='6.54265601121' />
  <node id='-26154' action='modify' visible='true' lat='53.20886926608' lon='6.54283362571' />
  <node id='-26155' action='modify' visible='true' lat='53.20887208092' lon='6.54284179706' />
  <node id='-26156' action='modify' visible='true' lat='53.20875024356' lon='6.54248455399' />
  <node id='-26157' action='modify' visible='true' lat='53.20879370591' lon='6.54248928291' />
  <node id='-26158' action='modify' visible='true' lat='53.20889515876' lon='6.54279940877' />
  <node id='-26159' action='modify' visible='true' lat='53.20875028655' lon='6.54245408549' />
  <node id='-26160' action='modify' visible='true' lat='53.20890872657' lon='6.54264827697'>
    <tag k='ele' v='0.0' />
  </node>
  <node id='-26161' action='modify' visible='true' lat='53.20887697378' lon='6.54291831271' />
  <node id='-26162' action='modify' visible='true' lat='53.20893457063' lon='6.54286715587' />
  <node id='-26163' action='modify' visible='true' lat='53.20876575595' lon='6.54239742001' />
  <node id='-26164' action='modify' visible='true' lat='53.20883942612' lon='6.54269063675' />
  <node id='-26165' action='modify' visible='true' lat='53.20882058726' lon='6.5426113083' />
  <node id='-26166' action='modify' visible='true' lat='53.20886695369' lon='6.54267762798' />
  <node id='-26167' action='modify' visible='true' lat='53.20888165961' lon='6.54285124481' />
  <way id='-1691' action='modify' visible='true'>
    <nd ref='-26153' />
    <nd ref='-26122' />
    <tag k='subtype' v='solid' />
    <tag k='type' v='line_thin' />
  </way>
  <way id='-1692' action='modify' visible='true'>
    <nd ref='-26115' />
    <nd ref='-26122' />
    <tag k='type' v='stop_line' />
  </way>
  <way id='-1693' action='modify' visible='true'>
    <nd ref='-26125' />
    <nd ref='-26154' />
    <nd ref='-26155' />
    <nd ref='-26113' />
    <nd ref='-26167' />
    <nd ref='-26116' />
    <nd ref='-26127' />
    <nd ref='-26144' />
    <nd ref='-26129' />
    <nd ref='-26141' />
    <nd ref='-26128' />
    <nd ref='-26158' />
    <tag k='type' v='virtual' />
  </way>
  <way id='-1694' action='modify' visible='true'>
    <nd ref='-26147' />
    <nd ref='-26136' />
    <tag k='height' v='0.45' />
    <tag k='subtype' v='red_yellow_green' />
    <tag k='type' v='traffic_light' />
  </way>
  <way id='-1695' action='modify' visible='true'>
    <nd ref='-26134' />
    <nd ref='-26142' />
    <nd ref='-26114' />
    <nd ref='-26137' />
    <nd ref='-26119' />
    <nd ref='-26163' />
    <nd ref='-26112' />
    <nd ref='-26159' />
    <nd ref='-26156' />
    <tag k='type' v='virtual' />
  </way>
  <way id='-1696' action='modify' visible='true'>
    <nd ref='-26164' />
    <nd ref='-26125' />
    <tag k='subtype' v='solid' />
    <tag k='type' v='line_thin' />
  </way>
  <way id='-1697' action='modify' visible='true'>
    <nd ref='-26115' />
    <nd ref='-26117' />
    <tag k='subtype' v='solid' />
    <tag k='type' v='line_thin' />
  </way>
  <way id='-1698' action='modify' visible='true'>
    <nd ref='-26166' />
    <nd ref='-26115' />
    <tag k='subtype' v='solid' />
    <tag k='type' v='line_thin' />
  </way>
  <way id='-1699' action='modify' visible='true'>
    <nd ref='-26165' />
    <nd ref='-26164' />
    <tag k='subtype' v='solid' />
    <tag k='type' v='line_thin' />
  </way>
  <way id='-1700' action='modify' visible='true'>
    <nd ref='-26118' />
    <nd ref='-26151' />
    <tag k='subtype' v='solid' />
    <tag k='type' v='line_thin' />
  </way>
  <way id='-1701' action='modify' visible='true'>
    <nd ref='-26150' />
    <nd ref='-26118' />
    <tag k='subtype' v='solid' />
    <tag k='type' v='line_thin' />
  </way>
  <way id='-1702' action='modify' visible='true'>
    <nd ref='-26143' />
    <nd ref='-26132' />
    <nd ref='-26153' />
    <tag k='subtype' v='solid' />
    <tag k='type' v='line_thin' />
  </way>
  <way id='-1703' action='modify' visible='true'>
    <nd ref='-26122' />
    <nd ref='-26134' />
    <tag k='subtype' v='solid' />
    <tag k='type' v='line_thin' />
  </way>
  <way id='-1704' action='modify' visible='true'>
    <nd ref='-26160' />
    <nd ref='-26126' />
    <nd ref='-26124' />
    <tag k='traffic_light_id' v='0' />
    <tag k='type' v='light_bulbs' />
  </way>
  <way id='-1705' action='modify' visible='true'>
    <nd ref='-26145' />
    <nd ref='-26165' />
    <tag k='subtype' v='solid' />
    <tag k='type' v='line_thin' />
  </way>
  <way id='-1706' action='modify' visible='true'>
    <nd ref='-26151' />
    <nd ref='-26123' />
    <nd ref='-26146' />
    <nd ref='-26149' />
    <nd ref='-26161' />
    <nd ref='-26121' />
    <nd ref='-26130' />
    <nd ref='-26140' />
    <nd ref='-26162' />
    <nd ref='-26138' />
    <nd ref='-26133' />
    <nd ref='-26143' />
    <tag k='type' v='virtual' />
  </way>
  <way id='-1707' action='modify' visible='true'>
    <nd ref='-26156' />
    <nd ref='-26150' />
    <tag k='subtype' v='solid' />
    <tag k='type' v='line_thin' />
  </way>
  <way id='-1708' action='modify' visible='true'>
    <nd ref='-26158' />
    <nd ref='-26166' />
    <tag k='subtype' v='solid' />
    <tag k='type' v='line_thin' />
  </way>
  <way id='-1709' action='modify' visible='true'>
    <nd ref='-26117' />
    <nd ref='-26135' />
    <nd ref='-26131' />
    <nd ref='-26139' />
    <nd ref='-26120' />
    <nd ref='-26148' />
    <nd ref='-26152' />
    <nd ref='-26157' />
    <nd ref='-26145' />
    <tag k='type' v='virtual' />
  </way>
  <relation id='-500' action='modify' visible='true'>
    <member type='way' ref='-1704' role='light_bulbs' />
    <member type='way' ref='-1694' role='refers' />
    <member type='way' ref='-1692' role='ref_line' />
    <tag k='subtype' v='traffic_light' />
    <tag k='type' v='regulatory_element' />
  </relation>
  <relation id='-152' action='modify' visible='true'>
    <member type='way' ref='-1700' role='left' />
    <member type='way' ref='-1696' role='right' />
    <tag k='location' v='urban' />
    <tag k='one_way' v='yes' />
    <tag k='region' v='de' />
    <tag k='speed_limit' v='5' />
    <tag k='subtype' v='road' />
    <tag k='type' v='lanelet' />
  </relation>
  <relation id='-153' action='modify' visible='true'>
    <member type='way' ref='-1695' role='left' />
    <member type='way' ref='-1709' role='right' />
    <tag k='location' v='urban' />
    <tag k='one_way' v='yes' />
    <tag k='region' v='de' />
    <tag k='speed_limit' v='5' />
    <tag k='subtype' v='road' />
    <tag k='type' v='lanelet' />
  </relation>
  <relation id='-154' action='modify' visible='true'>
    <member type='way' ref='-1707' role='left' />
    <member type='way' ref='-1705' role='right' />
    <tag k='location' v='urban' />
    <tag k='one_way' v='yes' />
    <tag k='region' v='de' />
    <tag k='speed_limit' v='5' />
    <tag k='subtype' v='road' />
    <tag k='type' v='lanelet' />
  </relation>
  <relation id='-155' action='modify' visible='true'>
    <member type='way' ref='-1706' role='left' />
    <member type='way' ref='-1693' role='right' />
    <tag k='location' v='urban' />
    <tag k='one_way' v='yes' />
    <tag k='region' v='de' />
    <tag k='speed_limit' v='5' />
    <tag k='subtype' v='road' />
    <tag k='type' v='lanelet' />
  </relation>
  <relation id='-156' action='modify' visible='true'>
    <member type='way' ref='-1703' role='left' />
    <member type='way' ref='-1697' role='right' />
    <tag k='location' v='urban' />
    <tag k='one_way' v='yes' />
    <tag k='region' v='de' />
    <tag k='speed_limit' v='5' />
    <tag k='subtype' v='road' />
    <tag k='type' v='lanelet' />
  </relation>
  <relation id='-157' action='modify' visible='true'>
    <member type='way' ref='-1701' role='left' />
    <member type='way' ref='-1699' role='right' />
    <tag k='location' v='urban' />
    <tag k='one_way' v='yes' />
    <tag k='region' v='de' />
    <tag k='speed_limit' v='5' />
    <tag k='subtype' v='road' />
    <tag k='type' v='lanelet' />
  </relation>
  <relation id='-158' action='modify' visible='true'>
    <member type='way' ref='-1702' role='left' />
    <member type='way' ref='-1708' role='right' />
    <tag k='location' v='urban' />
    <tag k='one_way' v='yes' />
    <tag k='region' v='de' />
    <tag k='speed_limit' v='5' />
    <tag k='subtype' v='road' />
    <tag k='type' v='lanelet' />
  </relation>
  <relation id='-159' action='modify' visible='true'>
    <member type='relation' ref='-500' role='regulatory_element' />
    <member type='way' ref='-1691' role='left' />
    <member type='way' ref='-1698' role='right' />
    <tag k='location' v='urban' />
    <tag k='one_way' v='yes' />
    <tag k='region' v='de' />
    <tag k='subtype' v='road' />
    <tag k='type' v='lanelet' />
  </relation>
</osm>
