<?xml version="1.0" encoding="UTF-8"?>
<osm generator="VMB">
  <MetaInfo format_version="1" map_version="4" validation_version="1"/>
  <node id="193" lat="35.6871523048" lon="139.68867291435">
    <tag k="local_x" v="81344.8401"/>
    <tag k="local_y" v="50042.1594"/>
    <tag k="ele" v="42.9543"/>
  </node>
  <node id="194" lat="35.68787634246" lon="139.68866766145">
    <tag k="local_x" v="81345.4372"/>
    <tag k="local_y" v="50122.4747"/>
    <tag k="ele" v="42.9543"/>
  </node>
  <node id="195" lat="35.68715377505" lon="139.68873628853">
    <tag k="local_x" v="81350.577"/>
    <tag k="local_y" v="50042.2459"/>
    <tag k="ele" v="42.9543"/>
  </node>
  <node id="196" lat="35.68787780641" lon="139.68873103521">
    <tag k="local_x" v="81351.174"/>
    <tag k="local_y" v="50122.5605"/>
    <tag k="ele" v="42.9543"/>
  </node>
  <node id="200" lat="35.68707158145" lon="139.68864371182">
    <tag k="local_x" v="81342.078"/>
    <tag k="local_y" v="50033.241"/>
    <tag k="ele" v="42.9543"/>
  </node>
  <node id="201" lat="35.68707287764" lon="139.68774793175">
    <tag k="local_x" v="81261.0208"/>
    <tag k="local_y" v="50034.4676"/>
    <tag k="ele" v="42.9543"/>
  </node>
  <node id="202" lat="35.68712425548" lon="139.68864380111">
    <tag k="local_x" v="81342.1641"/>
    <tag k="local_y" v="50039.0834"/>
    <tag k="ele" v="42.9543"/>
  </node>
  <node id="203" lat="35.68712555967" lon="139.68774801148">
    <tag k="local_x" v="81261.1061"/>
    <tag k="local_y" v="50040.3109"/>
    <tag k="ele" v="42.9543"/>
  </node>
  <node id="222" lat="35.68713216769" lon="139.6887329368">
    <tag k="local_x" v="81350.2417"/>
    <tag k="local_y" v="50039.8533"/>
    <tag k="ele" v="42.9543"/>
  </node>
  <node id="223" lat="35.68711374394" lon="139.68872430587">
    <tag k="local_x" v="81349.4334"/>
    <tag k="local_y" v="50037.8202"/>
    <tag k="ele" v="42.9543"/>
  </node>
  <node id="224" lat="35.68709646925" lon="139.6887139797">
    <tag k="local_x" v="81348.4734"/>
    <tag k="local_y" v="50035.9166"/>
    <tag k="ele" v="42.9543"/>
  </node>
  <node id="225" lat="35.68708672162" lon="139.6887025678">
    <tag k="local_x" v="81347.4263"/>
    <tag k="local_y" v="50034.8492"/>
    <tag k="ele" v="42.9543"/>
  </node>
  <node id="226" lat="35.68707812338" lon="139.68869156033">
    <tag k="local_x" v="81346.4175"/>
    <tag k="local_y" v="50033.9088"/>
    <tag k="ele" v="42.9543"/>
  </node>
  <node id="227" lat="35.68707342612" lon="139.6886701166">
    <tag k="local_x" v="81344.4701"/>
    <tag k="local_y" v="50033.4137"/>
    <tag k="ele" v="42.9543"/>
  </node>
  <node id="236" lat="35.68713178125" lon="139.68866543726">
    <tag k="local_x" v="81344.1331"/>
    <tag k="local_y" v="50039.892"/>
    <tag k="ele" v="42.9543"/>
  </node>
  <node id="237" lat="35.68788236067" lon="139.68772461917">
    <tag k="local_x" v="81260.1111"/>
    <tag k="local_y" v="50124.2822"/>
    <tag k="ele" v="42.9543"/>
  </node>
  <node id="238" lat="35.68713795678" lon="139.68772160218">
    <tag k="local_x" v="81258.7347"/>
    <tag k="local_y" v="50041.7179"/>
    <tag k="ele" v="42.9543"/>
  </node>
  <node id="239" lat="35.68788140175" lon="139.68766122501">
    <tag k="local_x" v="81254.3732"/>
    <tag k="local_y" v="50124.2525"/>
    <tag k="ele" v="42.9543"/>
  </node>
  <node id="240" lat="35.68713700001" lon="139.68765823951">
    <tag k="local_x" v="81252.9996"/>
    <tag k="local_y" v="50041.6884"/>
    <tag k="ele" v="42.9543"/>
  </node>
  <node id="241" lat="35.68789018191" lon="139.6876642672">
    <tag k="local_x" v="81254.6615"/>
    <tag k="local_y" v="50125.2227"/>
    <tag k="ele" v="42.9543"/>
  </node>
  <node id="242" lat="35.68790854308" lon="139.68767310564">
    <tag k="local_x" v="81255.4885"/>
    <tag k="local_y" v="50127.2486"/>
    <tag k="ele" v="42.9543"/>
  </node>
  <node id="243" lat="35.68792573187" lon="139.68768364859">
    <tag k="local_x" v="81256.468"/>
    <tag k="local_y" v="50129.1424"/>
    <tag k="ele" v="42.9543"/>
  </node>
  <node id="244" lat="35.68793537878" lon="139.68769515828">
    <tag k="local_x" v="81257.5238"/>
    <tag k="local_y" v="50130.1985"/>
    <tag k="ele" v="42.9543"/>
  </node>
  <node id="245" lat="35.68794391138" lon="139.68770625633">
    <tag k="local_x" v="81258.5407"/>
    <tag k="local_y" v="50131.1315"/>
    <tag k="ele" v="42.9543"/>
  </node>
  <node id="246" lat="35.68794842447" lon="139.68772774414">
    <tag k="local_x" v="81260.4918"/>
    <tag k="local_y" v="50131.6061"/>
    <tag k="ele" v="42.9543"/>
  </node>
  <node id="247" lat="35.68795007874" lon="139.68775419761">
    <tag k="local_x" v="81262.888"/>
    <tag k="local_y" v="50131.7576"/>
    <tag k="ele" v="42.9543"/>
  </node>
  <node id="248" lat="35.68789003974" lon="139.6877317705">
    <tag k="local_x" v="81260.7696"/>
    <tag k="local_y" v="50125.1253"/>
    <tag k="ele" v="42.9543"/>
  </node>
  <node id="249" lat="35.68789738922" lon="139.68775475346">
    <tag k="local_x" v="81262.8602"/>
    <tag k="local_y" v="50125.9127"/>
    <tag k="ele" v="42.9543"/>
  </node>
  <node id="250" lat="35.68795568837" lon="139.68864995624">
    <tag k="local_x" v="81343.9526"/>
    <tag k="local_y" v="50131.297"/>
    <tag k="ele" v="42.9543"/>
  </node>
  <node id="251" lat="35.68790300395" lon="139.68865048489">
    <tag k="local_x" v="81343.9224"/>
    <tag k="local_y" v="50125.4527"/>
    <tag k="ele" v="42.9543"/>
  </node>
  <node id="262" lat="35.6870758973" lon="139.68772381333">
    <tag k="local_x" v="81258.8428"/>
    <tag k="local_y" v="50034.8317"/>
    <tag k="ele" v="42.9543"/>
  </node>
  <node id="263" lat="35.6870834254" lon="139.68770314299">
    <tag k="local_x" v="81256.9835"/>
    <tag k="local_y" v="50035.6917"/>
    <tag k="ele" v="42.9543"/>
  </node>
  <node id="264" lat="35.68709235536" lon="139.68768378795">
    <tag k="local_x" v="81255.2453"/>
    <tag k="local_y" v="50036.7056"/>
    <tag k="ele" v="42.9543"/>
  </node>
  <node id="265" lat="35.68710201335" lon="139.68767299431">
    <tag k="local_x" v="81254.2829"/>
    <tag k="local_y" v="50037.7899"/>
    <tag k="ele" v="42.9543"/>
  </node>
  <node id="266" lat="35.68711131422" lon="139.68766343097">
    <tag k="local_x" v="81253.4313"/>
    <tag k="local_y" v="50038.8331"/>
    <tag k="ele" v="42.9543"/>
  </node>
  <node id="267" lat="35.68712922197" lon="139.68765846638">
    <tag k="local_x" v="81253.0086"/>
    <tag k="local_y" v="50040.8254"/>
    <tag k="ele" v="42.9543"/>
  </node>
  <node id="270" lat="35.68713338822" lon="139.68772918061">
    <tag k="local_x" v="81259.4137"/>
    <tag k="local_y" v="50041.202"/>
    <tag k="ele" v="42.9543"/>
  </node>
  <node id="276" lat="35.68795642675" lon="139.6886669208">
    <tag k="local_x" v="81345.4888"/>
    <tag k="local_y" v="50131.3584"/>
    <tag k="ele" v="42.9543"/>
  </node>
  <node id="277" lat="35.68794973936" lon="139.68868773113">
    <tag k="local_x" v="81347.362"/>
    <tag k="local_y" v="50130.5915"/>
    <tag k="ele" v="42.9543"/>
  </node>
  <node id="278" lat="35.68793884922" lon="139.68870476669">
    <tag k="local_x" v="81348.8874"/>
    <tag k="local_y" v="50129.363"/>
    <tag k="ele" v="42.9543"/>
  </node>
  <node id="279" lat="35.68792930048" lon="139.68871574971">
    <tag k="local_x" v="81349.8671"/>
    <tag k="local_y" v="50128.2906"/>
    <tag k="ele" v="42.9543"/>
  </node>
  <node id="280" lat="35.6879184498" lon="139.68872407637">
    <tag k="local_x" v="81350.6045"/>
    <tag k="local_y" v="50127.077"/>
    <tag k="ele" v="42.9543"/>
  </node>
  <node id="281" lat="35.68790054871" lon="139.688729244">
    <tag k="local_x" v="81351.0456"/>
    <tag k="local_y" v="50125.0852"/>
    <tag k="ele" v="42.9543"/>
  </node>
  <node id="284" lat="35.68789663156" lon="139.68866263817">
    <tag k="local_x" v="81345.0127"/>
    <tag k="local_y" v="50124.7312"/>
    <tag k="ele" v="42.9543"/>
  </node>
  <way id="197">
    <nd ref="193"/>
    <nd ref="194"/>
    <tag k="type" v="line_thin"/>
    <tag k="subtype" v="solid"/>
  </way>
  <way id="198">
    <nd ref="195"/>
    <nd ref="196"/>
    <tag k="type" v="line_thin"/>
    <tag k="subtype" v="solid"/>
  </way>
  <way id="204">
    <nd ref="200"/>
    <nd ref="201"/>
    <tag k="type" v="line_thin"/>
    <tag k="subtype" v="solid"/>
  </way>
  <way id="205">
    <nd ref="202"/>
    <nd ref="203"/>
    <tag k="type" v="line_thin"/>
    <tag k="subtype" v="solid"/>
  </way>
  <way id="217">
    <nd ref="193"/>
    <nd ref="236"/>
    <nd ref="202"/>
    <tag k="type" v="line_thin"/>
    <tag k="subtype" v="solid"/>
  </way>
  <way id="220">
    <nd ref="195"/>
    <nd ref="222"/>
    <nd ref="223"/>
    <nd ref="224"/>
    <nd ref="225"/>
    <nd ref="226"/>
    <nd ref="227"/>
    <nd ref="200"/>
    <tag k="type" v="line_thin"/>
    <tag k="subtype" v="solid"/>
  </way>
  <way id="252">
    <nd ref="237"/>
    <nd ref="238"/>
    <tag k="type" v="line_thin"/>
    <tag k="subtype" v="solid"/>
  </way>
  <way id="253">
    <nd ref="239"/>
    <nd ref="240"/>
    <tag k="type" v="line_thin"/>
    <tag k="subtype" v="solid"/>
  </way>
  <way id="254">
    <nd ref="239"/>
    <nd ref="241"/>
    <nd ref="242"/>
    <nd ref="243"/>
    <nd ref="244"/>
    <nd ref="245"/>
    <nd ref="246"/>
    <nd ref="247"/>
    <tag k="type" v="line_thin"/>
    <tag k="subtype" v="solid"/>
  </way>
  <way id="255">
    <nd ref="237"/>
    <nd ref="248"/>
    <nd ref="249"/>
    <tag k="type" v="line_thin"/>
    <tag k="subtype" v="solid"/>
  </way>
  <way id="256">
    <nd ref="247"/>
    <nd ref="250"/>
    <tag k="type" v="line_thin"/>
    <tag k="subtype" v="solid"/>
  </way>
  <way id="257">
    <nd ref="249"/>
    <nd ref="251"/>
    <tag k="type" v="line_thin"/>
    <tag k="subtype" v="solid"/>
  </way>
  <way id="272">
    <nd ref="201"/>
    <nd ref="262"/>
    <nd ref="263"/>
    <nd ref="264"/>
    <nd ref="265"/>
    <nd ref="266"/>
    <nd ref="267"/>
    <nd ref="240"/>
    <tag k="type" v="line_thin"/>
    <tag k="subtype" v="solid"/>
  </way>
  <way id="273">
    <nd ref="203"/>
    <nd ref="270"/>
    <nd ref="238"/>
    <tag k="type" v="line_thin"/>
    <tag k="subtype" v="solid"/>
  </way>
  <way id="286">
    <nd ref="250"/>
    <nd ref="276"/>
    <nd ref="277"/>
    <nd ref="278"/>
    <nd ref="279"/>
    <nd ref="280"/>
    <nd ref="281"/>
    <nd ref="196"/>
    <tag k="type" v="line_thin"/>
    <tag k="subtype" v="solid"/>
  </way>
  <way id="287">
    <nd ref="251"/>
    <nd ref="284"/>
    <nd ref="194"/>
    <tag k="type" v="line_thin"/>
    <tag k="subtype" v="solid"/>
  </way>
  <relation id="199">
    <member type="way" role="left" ref="198"/>
    <member type="way" role="right" ref="197"/>
    <tag k="type" v="lanelet"/>
    <tag k="subtype" v="road"/>
    <tag k="speed_limit" v="10"/>
    <tag k="location" v="urban"/>
    <tag k="one_way" v="yes"/>
  </relation>
  <relation id="206">
    <member type="way" role="left" ref="204"/>
    <member type="way" role="right" ref="205"/>
    <tag k="type" v="lanelet"/>
    <tag k="subtype" v="road"/>
    <tag k="speed_limit" v="10"/>
    <tag k="location" v="urban"/>
    <tag k="one_way" v="yes"/>
  </relation>
  <relation id="221">
    <member type="way" role="left" ref="220"/>
    <member type="way" role="right" ref="217"/>
    <tag k="type" v="lanelet"/>
    <tag k="subtype" v="road"/>
    <tag k="speed_limit" v="10"/>
    <tag k="location" v="urban"/>
    <tag k="one_way" v="yes"/>
  </relation>
  <relation id="258">
    <member type="way" role="left" ref="253"/>
    <member type="way" role="right" ref="252"/>
    <tag k="type" v="lanelet"/>
    <tag k="subtype" v="road"/>
    <tag k="speed_limit" v="10"/>
    <tag k="location" v="urban"/>
    <tag k="one_way" v="yes"/>
  </relation>
  <relation id="259">
    <member type="way" role="left" ref="254"/>
    <member type="way" role="right" ref="255"/>
    <tag k="type" v="lanelet"/>
    <tag k="subtype" v="road"/>
    <tag k="speed_limit" v="10"/>
    <tag k="location" v="urban"/>
    <tag k="one_way" v="yes"/>
  </relation>
  <relation id="260">
    <member type="way" role="left" ref="256"/>
    <member type="way" role="right" ref="257"/>
    <tag k="type" v="lanelet"/>
    <tag k="subtype" v="road"/>
    <tag k="speed_limit" v="10"/>
    <tag k="location" v="urban"/>
    <tag k="one_way" v="yes"/>
  </relation>
  <relation id="274">
    <member type="way" role="left" ref="272"/>
    <member type="way" role="right" ref="273"/>
    <tag k="type" v="lanelet"/>
    <tag k="subtype" v="road"/>
    <tag k="speed_limit" v="10"/>
    <tag k="location" v="urban"/>
    <tag k="one_way" v="yes"/>
  </relation>
  <relation id="288">
    <member type="way" role="left" ref="286"/>
    <member type="way" role="right" ref="287"/>
    <tag k="type" v="lanelet"/>
    <tag k="subtype" v="road"/>
    <tag k="speed_limit" v="10"/>
    <tag k="location" v="urban"/>
    <tag k="one_way" v="yes"/>
  </relation>
</osm>
