<?xml version='1.0' encoding='UTF-8'?>
<osm version='0.6' generator='JOSM'>
  <node id='-29715' action='modify' visible='true' lat='52.46000934499' lon='5.51299698608'>
    <tag k='ele' v='0' />
    <tag k='local_x' v='70738.4103' />
    <tag k='local_y' v='15166.0774' />
    <tag k='mgrs_code' v='31UFU707151' />
  </node>
  <node id='-29716' action='modify' visible='true' lat='52.45910025019' lon='5.51137760286'>
    <tag k='ele' v='0' />
    <tag k='local_x' v='70631.3941' />
    <tag k='local_y' v='15060.6818' />
    <tag k='mgrs_code' v='31UFU706150' />
  </node>
  <node id='-29717' action='modify' visible='true' lat='52.45998707693' lon='5.51304224871'>
    <tag k='ele' v='0' />
    <tag k='local_x' v='70740.4401' />
    <tag k='local_y' v='15164.1009' />
    <tag k='mgrs_code' v='31UFU707151' />
  </node>
  <node id='-29718' action='modify' visible='true' lat='52.45907655223' lon='5.51142118743'>
    <tag k='ele' v='0' />
    <tag k='local_x' v='70633.5212' />
    <tag k='local_y' v='15058.5267' />
    <tag k='mgrs_code' v='31UFU706150' />
  </node>
  <node id='-29719' action='modify' visible='true' lat='52.45909504076' lon='5.51136553259'>
    <tag k='ele' v='0' />
    <tag k='local_x' v='70629.9245' />
    <tag k='local_y' v='15059.664' />
    <tag k='mgrs_code' v='31UFU706150' />
  </node>
  <node id='-29720' action='modify' visible='true' lat='52.45909177181' lon='5.51135664744'>
    <tag k='ele' v='0' />
    <tag k='local_x' v='70629.3736' />
    <tag k='local_y' v='15059.4401' />
    <tag k='mgrs_code' v='31UFU706150' />
  </node>
  <node id='-29721' action='modify' visible='true' lat='52.45908840143' lon='5.51135027747'>
    <tag k='ele' v='0' />
    <tag k='local_x' v='70628.7658' />
    <tag k='local_y' v='15059.2143' />
    <tag k='mgrs_code' v='31UFU706150' />
  </node>
  <node id='-29722' action='modify' visible='true' lat='52.4590853366' lon='5.51134239878'>
    <tag k='ele' v='0' />
    <tag k='local_x' v='70628.2703' />
    <tag k='local_y' v='15059.0378' />
    <tag k='mgrs_code' v='31UFU706150' />
  </node>
  <node id='-29723' action='modify' visible='true' lat='52.45908308943' lon='5.51133217222'>
    <tag k='ele' v='0' />
    <tag k='local_x' v='70627.8399' />
    <tag k='local_y' v='15058.9546' />
    <tag k='mgrs_code' v='31UFU706150' />
  </node>
  <node id='-29724' action='modify' visible='true' lat='52.45907992323' lon='5.51131943248'>
    <tag k='ele' v='0' />
    <tag k='local_x' v='70627.3283' />
    <tag k='local_y' v='15058.9141' />
    <tag k='mgrs_code' v='31UFU706150' />
  </node>
  <node id='-29725' action='modify' visible='true' lat='52.459079923' lon='5.51130518282'>
    <tag k='ele' v='0' />
    <tag k='local_x' v='70626.4954' />
    <tag k='local_y' v='15058.9306' />
    <tag k='mgrs_code' v='31UFU706150' />
  </node>
  <node id='-29726' action='modify' visible='true' lat='52.4590806376' lon='5.51128791638'>
    <tag k='ele' v='0' />
    <tag k='local_x' v='70625.8903' />
    <tag k='local_y' v='15058.955' />
    <tag k='mgrs_code' v='31UFU706150' />
  </node>
  <node id='-29727' action='modify' visible='true' lat='52.45908206774' lon='5.51127467338'>
    <tag k='ele' v='0' />
    <tag k='local_x' v='70624.9628' />
    <tag k='local_y' v='15059.0706' />
    <tag k='mgrs_code' v='31UFU706150' />
  </node>
  <node id='-29728' action='modify' visible='true' lat='52.45908288551' lon='5.51126427935'>
    <tag k='ele' v='0' />
    <tag k='local_x' v='70624.2909' />
    <tag k='local_y' v='15059.0473' />
    <tag k='mgrs_code' v='31UFU706150' />
  </node>
  <node id='-29729' action='modify' visible='true' lat='52.45908390672' lon='5.51125153853'>
    <tag k='ele' v='0' />
    <tag k='local_x' v='70623.6304' />
    <tag k='local_y' v='15059.0243' />
    <tag k='mgrs_code' v='31UFU706150' />
  </node>
  <node id='-29730' action='modify' visible='true' lat='52.45908400885' lon='5.5112404749'>
    <tag k='ele' v='0' />
    <tag k='local_x' v='70622.904' />
    <tag k='local_y' v='15058.9308' />
    <tag k='mgrs_code' v='31UFU706150' />
  </node>
  <node id='-29731' action='modify' visible='true' lat='52.4590837018' lon='5.51122773408'>
    <tag k='ele' v='0' />
    <tag k='local_x' v='70622.2125' />
    <tag k='local_y' v='15058.8157' />
    <tag k='mgrs_code' v='31UFU706150' />
  </node>
  <node id='-29732' action='modify' visible='true' lat='52.45908298688' lon='5.51121566426'>
    <tag k='ele' v='0' />
    <tag k='local_x' v='70621.5336' />
    <tag k='local_y' v='15058.667' />
    <tag k='mgrs_code' v='31UFU706150' />
  </node>
  <node id='-29733' action='modify' visible='true' lat='52.45908196605' lon='5.51120409746'>
    <tag k='ele' v='0' />
    <tag k='local_x' v='70620.8551' />
    <tag k='local_y' v='15058.507' />
    <tag k='mgrs_code' v='31UFU706150' />
  </node>
  <node id='-29734' action='modify' visible='true' lat='52.45908145509' lon='5.51119370334'>
    <tag k='ele' v='0' />
    <tag k='local_x' v='70620.2013' />
    <tag k='local_y' v='15058.2909' />
    <tag k='mgrs_code' v='31UFU706150' />
  </node>
  <node id='-29735' action='modify' visible='true' lat='52.45908094398' lon='5.5111853216'>
    <tag k='ele' v='0' />
    <tag k='local_x' v='70619.502' />
    <tag k='local_y' v='15058.0732' />
    <tag k='mgrs_code' v='31UFU706150' />
  </node>
  <node id='-29736' action='modify' visible='true' lat='52.45907839107' lon='5.51117509566'>
    <tag k='ele' v='0' />
    <tag k='local_x' v='70618.7701' />
    <tag k='local_y' v='15057.809' />
    <tag k='mgrs_code' v='31UFU706150' />
  </node>
  <node id='-29737' action='modify' visible='true' lat='52.45907573499' lon='5.51116369659'>
    <tag k='ele' v='0' />
    <tag k='local_x' v='70618.1003' />
    <tag k='local_y' v='15057.399' />
    <tag k='mgrs_code' v='31UFU706150' />
  </node>
  <node id='-29738' action='modify' visible='true' lat='52.45907226166' lon='5.51115296763'>
    <tag k='ele' v='0' />
    <tag k='local_x' v='70617.2954' />
    <tag k='local_y' v='15056.9388' />
    <tag k='mgrs_code' v='31UFU706150' />
  </node>
  <node id='-29739' action='modify' visible='true' lat='52.45906919795' lon='5.51114374674'>
    <tag k='ele' v='0' />
    <tag k='local_x' v='70616.536' />
    <tag k='local_y' v='15056.4803' />
    <tag k='mgrs_code' v='31UFU706150' />
  </node>
  <node id='-29740' action='modify' visible='true' lat='52.45906541791' lon='5.5111338572'>
    <tag k='ele' v='0' />
    <tag k='local_x' v='70615.8914' />
    <tag k='local_y' v='15056.0029' />
    <tag k='mgrs_code' v='31UFU706150' />
  </node>
  <node id='-29741' action='modify' visible='true' lat='52.45905877851' lon='5.51111943928'>
    <tag k='ele' v='0' />
    <tag k='local_x' v='70614.9852' />
    <tag k='local_y' v='15055.1753' />
    <tag k='mgrs_code' v='31UFU706150' />
  </node>
  <node id='-29742' action='modify' visible='true' lat='52.45905591859' lon='5.51111373984'>
    <tag k='ele' v='0' />
    <tag k='local_x' v='70614.6091' />
    <tag k='local_y' v='15054.8438' />
    <tag k='mgrs_code' v='31UFU706150' />
  </node>
  <node id='-29743' action='modify' visible='true' lat='52.45901179081' lon='5.5110342803'>
    <tag k='ele' v='0' />
    <tag k='local_x' v='70609.3821' />
    <tag k='local_y' v='15049.7489' />
    <tag k='mgrs_code' v='31UFU706150' />
  </node>
  <node id='-29744' action='modify' visible='true' lat='52.45877889602' lon='5.51061786747'>
    <tag k='ele' v='0' />
    <tag k='local_x' v='70582.0689' />
    <tag k='local_y' v='15022.7325' />
    <tag k='mgrs_code' v='31UFU705150' />
  </node>
  <node id='-29745' action='modify' visible='true' lat='52.45876888539' lon='5.51060713826'>
    <tag k='ele' v='0' />
    <tag k='local_x' v='70581.0482' />
    <tag k='local_y' v='15021.264' />
    <tag k='mgrs_code' v='31UFU705150' />
  </node>
  <node id='-29746' action='modify' visible='true' lat='52.45876148' lon='5.51059942666'>
    <tag k='ele' v='0' />
    <tag k='local_x' v='70580.7132' />
    <tag k='local_y' v='15020.4051' />
    <tag k='mgrs_code' v='31UFU705150' />
  </node>
  <node id='-29747' action='modify' visible='true' lat='52.45875157152' lon='5.51059347586'>
    <tag k='ele' v='0' />
    <tag k='local_x' v='70580.5483' />
    <tag k='local_y' v='15019.4099' />
    <tag k='mgrs_code' v='31UFU705150' />
  </node>
  <node id='-29748' action='modify' visible='true' lat='52.45874130581' lon='5.51059070927'>
    <tag k='ele' v='0' />
    <tag k='local_x' v='70580.4801' />
    <tag k='local_y' v='15018.583' />
    <tag k='mgrs_code' v='31UFU705150' />
  </node>
  <node id='-29749' action='modify' visible='true' lat='52.45873109107' lon='5.51059406176'>
    <tag k='ele' v='0' />
    <tag k='local_x' v='70580.7834' />
    <tag k='local_y' v='15017.7292' />
    <tag k='mgrs_code' v='31UFU705150' />
  </node>
  <node id='-29750' action='modify' visible='true' lat='52.45872312393' lon='5.51059909188'>
    <tag k='ele' v='0' />
    <tag k='local_x' v='70581.1559' />
    <tag k='local_y' v='15016.8551' />
    <tag k='mgrs_code' v='31UFU705150' />
  </node>
  <node id='-29751' action='modify' visible='true' lat='52.45871413456' lon='5.51060914995'>
    <tag k='ele' v='0' />
    <tag k='local_x' v='70581.8739' />
    <tag k='local_y' v='15015.8792' />
    <tag k='mgrs_code' v='31UFU705150' />
  </node>
  <node id='-29752' action='modify' visible='true' lat='52.45870718837' lon='5.51061954364'>
    <tag k='ele' v='0' />
    <tag k='local_x' v='70582.6068' />
    <tag k='local_y' v='15015.1313' />
    <tag k='mgrs_code' v='31UFU705150' />
  </node>
  <node id='-29753' action='modify' visible='true' lat='52.45870003824' lon='5.51063429517'>
    <tag k='ele' v='0' />
    <tag k='local_x' v='70583.4268' />
    <tag k='local_y' v='15014.5002' />
    <tag k='mgrs_code' v='31UFU705150' />
  </node>
  <node id='-29754' action='modify' visible='true' lat='52.45869758698' lon='5.51064837693'>
    <tag k='ele' v='0' />
    <tag k='local_x' v='70584.3552' />
    <tag k='local_y' v='15014.0321' />
    <tag k='mgrs_code' v='31UFU705150' />
  </node>
  <node id='-29755' action='modify' visible='true' lat='52.4586945225' lon='5.51066681752'>
    <tag k='ele' v='0' />
    <tag k='local_x' v='70585.7124' />
    <tag k='local_y' v='15013.6926' />
    <tag k='mgrs_code' v='31UFU705150' />
  </node>
  <node id='-29756' action='modify' visible='true' lat='52.45869636097' lon='5.51069330343'>
    <tag k='ele' v='0' />
    <tag k='local_x' v='70586.8723' />
    <tag k='local_y' v='15013.7784' />
    <tag k='mgrs_code' v='31UFU705150' />
  </node>
  <node id='-29757' action='modify' visible='true' lat='52.45870432876' lon='5.51071342096'>
    <tag k='ele' v='0' />
    <tag k='local_x' v='70588.5293' />
    <tag k='local_y' v='15014.6549' />
    <tag k='mgrs_code' v='31UFU705150' />
  </node>
  <node id='-29758' action='modify' visible='true' lat='52.45871290907' lon='5.51073152493'>
    <tag k='ele' v='0' />
    <tag k='local_x' v='70589.8531' />
    <tag k='local_y' v='15015.9292' />
    <tag k='mgrs_code' v='31UFU705150' />
  </node>
  <node id='-29759' action='modify' visible='true' lat='52.45872455405' lon='5.51074225495'>
    <tag k='ele' v='0' />
    <tag k='local_x' v='70590.654' />
    <tag k='local_y' v='15017.1626' />
    <tag k='mgrs_code' v='31UFU705150' />
  </node>
  <node id='-29760' action='modify' visible='true' lat='52.45873068262' lon='5.51074761799'>
    <tag k='ele' v='0' />
    <tag k='local_x' v='70591.0166' />
    <tag k='local_y' v='15017.8803' />
    <tag k='mgrs_code' v='31UFU705150' />
  </node>
  <node id='-29761' action='modify' visible='true' lat='52.45873762848' lon='5.51074962963'>
    <tag k='ele' v='0' />
    <tag k='local_x' v='70591.1963' />
    <tag k='local_y' v='15018.6144' />
    <tag k='mgrs_code' v='31UFU705150' />
  </node>
  <node id='-29762' action='modify' visible='true' lat='52.45874416559' lon='5.51074996501'>
    <tag k='ele' v='0' />
    <tag k='local_x' v='70591.1734' />
    <tag k='local_y' v='15019.2732' />
    <tag k='mgrs_code' v='31UFU705150' />
  </node>
  <node id='-29763' action='modify' visible='true' lat='52.45875560647' lon='5.51074828956'>
    <tag k='ele' v='0' />
    <tag k='local_x' v='70591.1678' />
    <tag k='local_y' v='15020.0919' />
    <tag k='mgrs_code' v='31UFU705150' />
  </node>
  <node id='-29764' action='modify' visible='true' lat='52.45876500373' lon='5.51074996609'>
    <tag k='ele' v='0' />
    <tag k='local_x' v='70591.1503' />
    <tag k='local_y' v='15021.2513' />
    <tag k='mgrs_code' v='31UFU705150' />
  </node>
  <node id='-29765' action='modify' visible='true' lat='52.45877440126' lon='5.51075599988'>
    <tag k='ele' v='0' />
    <tag k='local_x' v='70591.4617' />
    <tag k='local_y' v='15022.7861' />
    <tag k='mgrs_code' v='31UFU705150' />
  </node>
  <node id='-29766' action='modify' visible='true' lat='52.45878175574' lon='5.51076170089'>
    <tag k='ele' v='0' />
    <tag k='local_x' v='70591.6823' />
    <tag k='local_y' v='15023.6581' />
    <tag k='mgrs_code' v='31UFU705150' />
  </node>
  <node id='-29767' action='modify' visible='true' lat='52.4587915621' lon='5.51077310017'>
    <tag k='ele' v='0' />
    <tag k='local_x' v='70592.4918' />
    <tag k='local_y' v='15024.6416' />
    <tag k='mgrs_code' v='31UFU705150' />
  </node>
  <node id='-29768' action='modify' visible='true' lat='52.45888267796' lon='5.51093399013'>
    <tag k='ele' v='0' />
    <tag k='local_x' v='70603.0687' />
    <tag k='local_y' v='15035.1541' />
    <tag k='mgrs_code' v='31UFU706150' />
  </node>
  <node id='-29769' action='modify' visible='true' lat='52.45890688611' lon='5.51097778556'>
    <tag k='ele' v='0' />
    <tag k='local_x' v='70605.9501' />
    <tag k='local_y' v='15037.9496' />
    <tag k='mgrs_code' v='31UFU706150' />
  </node>
  <node id='-29770' action='modify' visible='true' lat='52.45897767401' lon='5.51110401677'>
    <tag k='ele' v='0' />
    <tag k='local_x' v='70614.2512' />
    <tag k='local_y' v='15046.1197' />
    <tag k='mgrs_code' v='31UFU706150' />
  </node>
  <node id='-29771' action='modify' visible='true' lat='52.45903548942' lon='5.5111497813'>
    <tag k='ele' v='0' />
    <tag k='local_x' v='70617.2101' />
    <tag k='local_y' v='15053.1601' />
    <tag k='mgrs_code' v='31UFU706150' />
  </node>
  <node id='-29772' action='modify' visible='true' lat='52.45906817642' lon='5.51140811212'>
    <tag k='ele' v='0' />
    <tag k='local_x' v='70632.9433' />
    <tag k='local_y' v='15058.0972' />
    <tag k='mgrs_code' v='31UFU706150' />
  </node>
  <node id='-29773' action='modify' visible='true' lat='52.45906368124' lon='5.51139235427'>
    <tag k='ele' v='0' />
    <tag k='local_x' v='70631.9657' />
    <tag k='local_y' v='15057.358' />
    <tag k='mgrs_code' v='31UFU706150' />
  </node>
  <node id='-29774' action='modify' visible='true' lat='52.45905816551' lon='5.51137659626'>
    <tag k='ele' v='0' />
    <tag k='local_x' v='70630.9166' />
    <tag k='local_y' v='15056.7074' />
    <tag k='mgrs_code' v='31UFU706150' />
  </node>
  <node id='-29775' action='modify' visible='true' lat='52.45905183256' lon='5.51135949788'>
    <tag k='ele' v='0' />
    <tag k='local_x' v='70630.0874' />
    <tag k='local_y' v='15056.2919' />
    <tag k='mgrs_code' v='31UFU706150' />
  </node>
  <node id='-29776' action='modify' visible='true' lat='52.45905040216' lon='5.51134038639'>
    <tag k='ele' v='0' />
    <tag k='local_x' v='70628.8026' />
    <tag k='local_y' v='15055.8605' />
    <tag k='mgrs_code' v='31UFU706150' />
  </node>
  <node id='-29777' action='modify' visible='true' lat='52.45904897239' lon='5.51132228122'>
    <tag k='ele' v='0' />
    <tag k='local_x' v='70627.5123' />
    <tag k='local_y' v='15055.5882' />
    <tag k='mgrs_code' v='31UFU706150' />
  </node>
  <node id='-29778' action='modify' visible='true' lat='52.45904958519' lon='5.51128506685'>
    <tag k='ele' v='0' />
    <tag k='local_x' v='70626.1938' />
    <tag k='local_y' v='15055.4741' />
    <tag k='mgrs_code' v='31UFU706150' />
  </node>
  <node id='-29779' action='modify' visible='true' lat='52.45905081151' lon='5.51126696103'>
    <tag k='ele' v='0' />
    <tag k='local_x' v='70625.0039' />
    <tag k='local_y' v='15055.592' />
    <tag k='mgrs_code' v='31UFU706150' />
  </node>
  <node id='-29780' action='modify' visible='true' lat='52.4590546929' lon='5.51124818566'>
    <tag k='ele' v='0' />
    <tag k='local_x' v='70623.7701' />
    <tag k='local_y' v='15055.6628' />
    <tag k='mgrs_code' v='31UFU706150' />
  </node>
  <node id='-29781' action='modify' visible='true' lat='52.4590528543' lon='5.51123343377'>
    <tag k='ele' v='0' />
    <tag k='local_x' v='70622.5866' />
    <tag k='local_y' v='15055.5989' />
    <tag k='mgrs_code' v='31UFU706150' />
  </node>
  <node id='-29782' action='modify' visible='true' lat='52.45905121941' lon='5.51121633481'>
    <tag k='ele' v='0' />
    <tag k='local_x' v='70621.4314' />
    <tag k='local_y' v='15055.3767' />
    <tag k='mgrs_code' v='31UFU706150' />
  </node>
  <node id='-29783' action='modify' visible='true' lat='52.45904979' lon='5.51120124669'>
    <tag k='ele' v='0' />
    <tag k='local_x' v='70620.412' />
    <tag k='local_y' v='15055.1821' />
    <tag k='mgrs_code' v='31UFU706150' />
  </node>
  <node id='-29784' action='modify' visible='true' lat='52.45904733826' lon='5.51118683053'>
    <tag k='ele' v='0' />
    <tag k='local_x' v='70619.4422' />
    <tag k='local_y' v='15054.8754' />
    <tag k='mgrs_code' v='31UFU706150' />
  </node>
  <node id='-29785' action='modify' visible='true' lat='52.45904529492' lon='5.51117643737'>
    <tag k='ele' v='0' />
    <tag k='local_x' v='70618.5698' />
    <tag k='local_y' v='15054.3901' />
    <tag k='mgrs_code' v='31UFU706150' />
  </node>
  <node id='-29786' action='modify' visible='true' lat='52.45904161831' lon='5.51116503675'>
    <tag k='ele' v='0' />
    <tag k='local_x' v='70617.7248' />
    <tag k='local_y' v='15053.7694' />
    <tag k='mgrs_code' v='31UFU706150' />
  </node>
  <node id='-29787' action='modify' visible='true' lat='52.4590384258' lon='5.51115527223'>
    <tag k='ele' v='0' />
    <tag k='local_x' v='70617.3927' />
    <tag k='local_y' v='15053.4024' />
    <tag k='mgrs_code' v='31UFU706150' />
  </node>
  <node id='-29788' action='modify' visible='true' lat='52.45901434457' lon='5.51110493847'>
    <tag k='ele' v='0' />
    <tag k='local_x' v='70614.172' />
    <tag k='local_y' v='15050.1998' />
    <tag k='mgrs_code' v='31UFU706150' />
  </node>
  <node id='-29789' action='modify' visible='true' lat='52.45900882911' lon='5.51109479665'>
    <tag k='ele' v='0' />
    <tag k='local_x' v='70613.5044' />
    <tag k='local_y' v='15049.5625' />
    <tag k='mgrs_code' v='31UFU706150' />
  </node>
  <node id='-29790' action='modify' visible='true' lat='52.45900315994' lon='5.51108499055'>
    <tag k='ele' v='0' />
    <tag k='local_x' v='70612.8602' />
    <tag k='local_y' v='15048.9089' />
    <tag k='mgrs_code' v='31UFU706150' />
  </node>
  <node id='-29791' action='modify' visible='true' lat='52.45899846135' lon='5.51107644096'>
    <tag k='ele' v='0' />
    <tag k='local_x' v='70612.2976' />
    <tag k='local_y' v='15048.3662' />
    <tag k='mgrs_code' v='31UFU706150' />
  </node>
  <node id='-29792' action='modify' visible='true' lat='52.45899299628' lon='5.51106646689'>
    <tag k='ele' v='0' />
    <tag k='local_x' v='70611.6412' />
    <tag k='local_y' v='15047.7349' />
    <tag k='mgrs_code' v='31UFU706150' />
  </node>
  <node id='-29793' action='modify' visible='true' lat='52.45898696925' lon='5.51105674348'>
    <tag k='ele' v='0' />
    <tag k='local_x' v='70611.004' />
    <tag k='local_y' v='15047.0417' />
    <tag k='mgrs_code' v='31UFU706150' />
  </node>
  <node id='-29794' action='modify' visible='true' lat='52.4589445785' lon='5.51098013291'>
    <tag k='ele' v='0' />
    <tag k='local_x' v='70605.9638' />
    <tag k='local_y' v='15042.1467' />
    <tag k='mgrs_code' v='31UFU706150' />
  </node>
  <node id='-29795' action='modify' visible='true' lat='52.45893824547' lon='5.51096923649'>
    <tag k='ele' v='0' />
    <tag k='local_x' v='70605.2481' />
    <tag k='local_y' v='15041.4167' />
    <tag k='mgrs_code' v='31UFU706150' />
  </node>
  <node id='-29796' action='modify' visible='true' lat='52.45893375097' lon='5.51096051894'>
    <tag k='ele' v='0' />
    <tag k='local_x' v='70604.6733' />
    <tag k='local_y' v='15040.8963' />
    <tag k='mgrs_code' v='31UFU706150' />
  </node>
  <node id='-29797' action='modify' visible='true' lat='52.45892843904' lon='5.51095180197'>
    <tag k='ele' v='0' />
    <tag k='local_x' v='70604.1017' />
    <tag k='local_y' v='15040.285' />
    <tag k='mgrs_code' v='31UFU706150' />
  </node>
  <node id='-29798' action='modify' visible='true' lat='52.45892312771' lon='5.51094174395'>
    <tag k='ele' v='0' />
    <tag k='local_x' v='70603.439' />
    <tag k='local_y' v='15039.6706' />
    <tag k='mgrs_code' v='31UFU706150' />
  </node>
  <node id='-29799' action='modify' visible='true' lat='52.45891740732' lon='5.51093202036'>
    <tag k='ele' v='0' />
    <tag k='local_x' v='70602.8006' />
    <tag k='local_y' v='15039.0115' />
    <tag k='mgrs_code' v='31UFU706150' />
  </node>
  <node id='-29800' action='modify' visible='true' lat='52.45891189192' lon='5.51092229814'>
    <tag k='ele' v='0' />
    <tag k='local_x' v='70602.1615' />
    <tag k='local_y' v='15038.3752' />
    <tag k='mgrs_code' v='31UFU706150' />
  </node>
  <node id='-29801' action='modify' visible='true' lat='52.45890657993' lon='5.51091324553'>
    <tag k='ele' v='0' />
    <tag k='local_x' v='70601.5671' />
    <tag k='local_y' v='15037.7631' />
    <tag k='mgrs_code' v='31UFU706150' />
  </node>
  <node id='-29802' action='modify' visible='true' lat='52.45890085947' lon='5.51090318631'>
    <tag k='ele' v='0' />
    <tag k='local_x' v='70600.9059' />
    <tag k='local_y' v='15037.1032' />
    <tag k='mgrs_code' v='31UFU706150' />
  </node>
  <node id='-29803' action='modify' visible='true' lat='52.45889575229' lon='5.51089321205'>
    <tag k='ele' v='0' />
    <tag k='local_x' v='70600.2481' />
    <tag k='local_y' v='15036.5117' />
    <tag k='mgrs_code' v='31UFU706150' />
  </node>
  <node id='-29804' action='modify' visible='true' lat='52.45888987896' lon='5.51088332225'>
    <tag k='ele' v='0' />
    <tag k='local_x' v='70599.599' />
    <tag k='local_y' v='15035.8352' />
    <tag k='mgrs_code' v='31UFU705150' />
  </node>
  <node id='-29805' action='modify' visible='true' lat='52.45888466933' lon='5.5108735144'>
    <tag k='ele' v='0' />
    <tag k='local_x' v='70598.9529' />
    <tag k='local_y' v='15035.2327' />
    <tag k='mgrs_code' v='31UFU705150' />
  </node>
  <node id='-29806' action='modify' visible='true' lat='52.45887945979' lon='5.51086437931'>
    <tag k='ele' v='0' />
    <tag k='local_x' v='70598.3525' />
    <tag k='local_y' v='15034.6318' />
    <tag k='mgrs_code' v='31UFU705150' />
  </node>
  <node id='-29807' action='modify' visible='true' lat='52.45887373939' lon='5.51085465574'>
    <tag k='ele' v='0' />
    <tag k='local_x' v='70597.7141' />
    <tag k='local_y' v='15033.9727' />
    <tag k='mgrs_code' v='31UFU705150' />
  </node>
  <node id='-29808' action='modify' visible='true' lat='52.45886858085' lon='5.51084417805'>
    <tag k='ele' v='0' />
    <tag k='local_x' v='70597.0223' />
    <tag k='local_y' v='15033.3743' />
    <tag k='mgrs_code' v='31UFU705150' />
  </node>
  <node id='-29809' action='modify' visible='true' lat='52.45886326998' lon='5.51083613098'>
    <tag k='ele' v='0' />
    <tag k='local_x' v='70596.4962' />
    <tag k='local_y' v='15032.7647' />
    <tag k='mgrs_code' v='31UFU705150' />
  </node>
  <node id='-29810' action='modify' visible='true' lat='52.45885754932' lon='5.51082540343'>
    <tag k='ele' v='0' />
    <tag k='local_x' v='70595.7896' />
    <tag k='local_y' v='15032.1032' />
    <tag k='mgrs_code' v='31UFU705150' />
  </node>
  <node id='-29811' action='modify' visible='true' lat='52.45885223809' lon='5.5108156796'>
    <tag k='ele' v='0' />
    <tag k='local_x' v='70595.1496' />
    <tag k='local_y' v='15031.4896' />
    <tag k='mgrs_code' v='31UFU705150' />
  </node>
  <node id='-29812' action='modify' visible='true' lat='52.45884753928' lon='5.51080629243'>
    <tag k='ele' v='0' />
    <tag k='local_x' v='70594.5301' />
    <tag k='local_y' v='15030.9449' />
    <tag k='mgrs_code' v='31UFU705150' />
  </node>
  <node id='-29813' action='modify' visible='true' lat='52.45884125678' lon='5.51079623362'>
    <tag k='ele' v='0' />
    <tag k='local_x' v='70593.8711' />
    <tag k='local_y' v='15030.2225' />
    <tag k='mgrs_code' v='31UFU705150' />
  </node>
  <node id='-29814' action='modify' visible='true' lat='52.45883563901' lon='5.51078718131'>
    <tag k='ele' v='0' />
    <tag k='local_x' v='70593.2779' />
    <tag k='local_y' v='15029.5764' />
    <tag k='mgrs_code' v='31UFU705150' />
  </node>
  <node id='-29815' action='modify' visible='true' lat='52.45883012251' lon='5.51077645214'>
    <tag k='ele' v='0' />
    <tag k='local_x' v='70592.5704' />
    <tag k='local_y' v='15028.9376' />
    <tag k='mgrs_code' v='31UFU705150' />
  </node>
  <node id='-29816' action='modify' visible='true' lat='52.45882521985' lon='5.51076832233'>
    <tag k='ele' v='0' />
    <tag k='local_x' v='70592.0371' />
    <tag k='local_y' v='15028.3732' />
    <tag k='mgrs_code' v='31UFU705150' />
  </node>
  <node id='-29817' action='modify' visible='true' lat='52.45881955055' lon='5.51075801285'>
    <tag k='ele' v='0' />
    <tag k='local_x' v='70591.3587' />
    <tag k='local_y' v='15027.7184' />
    <tag k='mgrs_code' v='31UFU705150' />
  </node>
  <node id='-29818' action='modify' visible='true' lat='52.45881423841' lon='5.51074828899'>
    <tag k='ele' v='0' />
    <tag k='local_x' v='70590.7187' />
    <tag k='local_y' v='15027.1047' />
    <tag k='mgrs_code' v='31UFU705150' />
  </node>
  <node id='-29819' action='modify' visible='true' lat='52.45880872294' lon='5.51073823117'>
    <tag k='ele' v='0' />
    <tag k='local_x' v='70590.0568' />
    <tag k='local_y' v='15026.4676' />
    <tag k='mgrs_code' v='31UFU705150' />
  </node>
  <node id='-29820' action='modify' visible='true' lat='52.4588040245' lon='5.51073051929'>
    <tag k='ele' v='0' />
    <tag k='local_x' v='70589.5511' />
    <tag k='local_y' v='15025.9269' />
    <tag k='mgrs_code' v='31UFU705150' />
  </node>
  <node id='-29821' action='modify' visible='true' lat='52.45875652603' lon='5.51064569435'>
    <tag k='ele' v='0' />
    <tag k='local_x' v='70583.7983' />
    <tag k='local_y' v='15020.211' />
    <tag k='mgrs_code' v='31UFU705150' />
  </node>
  <node id='-29822' action='modify' visible='true' lat='52.45875070291' lon='5.51064016338'>
    <tag k='ele' v='0' />
    <tag k='local_x' v='70583.6194' />
    <tag k='local_y' v='15019.7839' />
    <tag k='mgrs_code' v='31UFU705150' />
  </node>
  <node id='-29823' action='modify' visible='true' lat='52.45874666858' lon='5.51063873841'>
    <tag k='ele' v='0' />
    <tag k='local_x' v='70583.5382' />
    <tag k='local_y' v='15019.3319' />
    <tag k='mgrs_code' v='31UFU705150' />
  </node>
  <node id='-29824' action='modify' visible='true' lat='52.45874150978' lon='5.51063957683'>
    <tag k='ele' v='0' />
    <tag k='local_x' v='70583.6151' />
    <tag k='local_y' v='15018.7602' />
    <tag k='mgrs_code' v='31UFU705150' />
  </node>
  <node id='-29825' action='modify' visible='true' lat='52.45873701516' lon='5.51064276132'>
    <tag k='ele' v='0' />
    <tag k='local_x' v='70583.8488' />
    <tag k='local_y' v='15018.2679' />
    <tag k='mgrs_code' v='31UFU705150' />
  </node>
  <node id='-29826' action='modify' visible='true' lat='52.45873374641' lon='5.51064686792'>
    <tag k='ele' v='0' />
    <tag k='local_x' v='70584.1404' />
    <tag k='local_y' v='15017.9141' />
    <tag k='mgrs_code' v='31UFU705150' />
  </node>
  <node id='-29827' action='modify' visible='true' lat='52.45873012016' lon='5.51065357376'>
    <tag k='ele' v='0' />
    <tag k='local_x' v='70584.9446' />
    <tag k='local_y' v='15017.0834' />
    <tag k='mgrs_code' v='31UFU705150' />
  </node>
  <node id='-29828' action='modify' visible='true' lat='52.45872884367' lon='5.51065977668'>
    <tag k='ele' v='0' />
    <tag k='local_x' v='70585.3709' />
    <tag k='local_y' v='15016.9561' />
    <tag k='mgrs_code' v='31UFU705150' />
  </node>
  <node id='-29829' action='modify' visible='true' lat='52.45872772013' lon='5.51066631512'>
    <tag k='ele' v='0' />
    <tag k='local_x' v='70585.8194' />
    <tag k='local_y' v='15016.8466' />
    <tag k='mgrs_code' v='31UFU705150' />
  </node>
  <node id='-29830' action='modify' visible='true' lat='52.45872807783' lon='5.51067352229'>
    <tag k='ele' v='0' />
    <tag k='local_x' v='70586.3076' />
    <tag k='local_y' v='15016.9034' />
    <tag k='mgrs_code' v='31UFU705150' />
  </node>
  <node id='-29831' action='modify' visible='true' lat='52.4587303762' lon='5.51068140227'>
    <tag k='ele' v='0' />
    <tag k='local_x' v='70586.834' />
    <tag k='local_y' v='15017.1776' />
    <tag k='mgrs_code' v='31UFU705150' />
  </node>
  <node id='-29832' action='modify' visible='true' lat='52.45873303135' lon='5.5106851731'>
    <tag k='ele' v='0' />
    <tag k='local_x' v='70587.3029' />
    <tag k='local_y' v='15017.626' />
    <tag k='mgrs_code' v='31UFU705150' />
  </node>
  <node id='-29833' action='modify' visible='true' lat='52.45873727068' lon='5.51069062124'>
    <tag k='ele' v='0' />
    <tag k='local_x' v='70587.6566' />
    <tag k='local_y' v='15018.1103' />
    <tag k='mgrs_code' v='31UFU705150' />
  </node>
  <node id='-29834' action='modify' visible='true' lat='52.45874135659' lon='5.51069355511'>
    <tag k='ele' v='0' />
    <tag k='local_x' v='70587.8401' />
    <tag k='local_y' v='15018.5716' />
    <tag k='mgrs_code' v='31UFU705150' />
  </node>
  <node id='-29835' action='modify' visible='true' lat='52.45874723053' lon='5.51069573534'>
    <tag k='ele' v='0' />
    <tag k='local_x' v='70587.9231' />
    <tag k='local_y' v='15019.1375' />
    <tag k='mgrs_code' v='31UFU705150' />
  </node>
  <node id='-29836' action='modify' visible='true' lat='52.45875131633' lon='5.51069707653'>
    <tag k='ele' v='0' />
    <tag k='local_x' v='70587.9418' />
    <tag k='local_y' v='15019.9115' />
    <tag k='mgrs_code' v='31UFU705150' />
  </node>
  <node id='-29837' action='modify' visible='true' lat='52.45875933471' lon='5.51069950707'>
    <tag k='ele' v='0' />
    <tag k='local_x' v='70587.9016' />
    <tag k='local_y' v='15020.5754' />
    <tag k='mgrs_code' v='31UFU705150' />
  </node>
  <node id='-29838' action='modify' visible='true' lat='52.45876342033' lon='5.51070068045'>
    <tag k='ele' v='0' />
    <tag k='local_x' v='70587.9168' />
    <tag k='local_y' v='15021.1218' />
    <tag k='mgrs_code' v='31UFU705150' />
  </node>
  <node id='-29839' action='modify' visible='true' lat='52.45876908943' lon='5.51070185401'>
    <tag k='ele' v='0' />
    <tag k='local_x' v='70587.9746' />
    <tag k='local_y' v='15021.755' />
    <tag k='mgrs_code' v='31UFU705150' />
  </node>
  <node id='-29840' action='modify' visible='true' lat='52.45877792575' lon='5.51070311162'>
    <tag k='ele' v='0' />
    <tag k='local_x' v='70588.0934' />
    <tag k='local_y' v='15022.7657' />
    <tag k='mgrs_code' v='31UFU705150' />
  </node>
  <node id='-29841' action='modify' visible='true' lat='52.4587874252' lon='5.51070964941'>
    <tag k='ele' v='0' />
    <tag k='local_x' v='70588.3586' />
    <tag k='local_y' v='15023.9918' />
    <tag k='mgrs_code' v='31UFU705150' />
  </node>
  <node id='-29842' action='modify' visible='true' lat='52.45879380968' lon='5.51071677282'>
    <tag k='ele' v='0' />
    <tag k='local_x' v='70588.6568' />
    <tag k='local_y' v='15024.7585' />
    <tag k='mgrs_code' v='31UFU705150' />
  </node>
  <node id='-29843' action='modify' visible='true' lat='52.45878662923' lon='5.51069979408'>
    <tag k='ele' v='0' />
    <tag k='local_x' v='70587.5312' />
    <tag k='local_y' v='15023.9199' />
    <tag k='mgrs_code' v='31UFU705150' />
  </node>
  <node id='-29844' action='modify' visible='true' lat='52.45882439413' lon='5.51070177581'>
    <tag k='ele' v='0' />
    <tag k='local_x' v='70587.5198' />
    <tag k='local_y' v='15028.1242' />
    <tag k='mgrs_code' v='31UFU705150' />
  </node>
  <node id='-29845' action='modify' visible='true' lat='52.45899761873' lon='5.51100913213'>
    <tag k='ele' v='0' />
    <tag k='local_x' v='70607.7286' />
    <tag k='local_y' v='15048.1135' />
    <tag k='mgrs_code' v='31UFU706150' />
  </node>
  <node id='-29846' action='modify' visible='true' lat='52.45895842455' lon='5.5110693553'>
    <tag k='ele' v='0' />
    <tag k='local_x' v='70611.9711' />
    <tag k='local_y' v='15043.8972' />
    <tag k='mgrs_code' v='31UFU706150' />
  </node>
  <node id='-29847' action='modify' visible='true' lat='52.45897321774' lon='5.5109661603'>
    <tag k='ele' v='0' />
    <tag k='local_x' v='70604.9039' />
    <tag k='local_y' v='15045.2985' />
    <tag k='mgrs_code' v='31UFU706150' />
  </node>
  <node id='-29848' action='modify' visible='true' lat='52.45893423471' lon='5.51102580076'>
    <tag k='ele' v='0' />
    <tag k='local_x' v='70609.106' />
    <tag k='local_y' v='15041.1043' />
    <tag k='mgrs_code' v='31UFU706150' />
  </node>
  <node id='-29849' action='modify' visible='true' lat='52.45932414019' lon='5.51178482958'>
    <tag k='ele' v='0' />
    <tag k='local_x' v='70659.4516' />
    <tag k='local_y' v='15088.314' />
    <tag k='mgrs_code' v='31UFU706150' />
  </node>
  <node id='-29850' action='modify' visible='true' lat='52.45930238781' lon='5.51181712592'>
    <tag k='ele' v='0' />
    <tag k='local_x' v='70661.5395' />
    <tag k='local_y' v='15086.1922' />
    <tag k='mgrs_code' v='31UFU706150' />
  </node>
  <node id='-29851' action='modify' visible='true' lat='52.45932529634' lon='5.51185600119'>
    <tag k='ele' v='0' />
    <tag k='local_x' v='70664.3602' />
    <tag k='local_y' v='15088.9774' />
    <tag k='mgrs_code' v='31UFU706150' />
  </node>
  <node id='-29852' action='modify' visible='true' lat='52.45934681597' lon='5.51182340159'>
    <tag k='ele' v='0' />
    <tag k='local_x' v='70662.2526' />
    <tag k='local_y' v='15091.0726' />
    <tag k='mgrs_code' v='31UFU706150' />
  </node>
  <node id='-29853' action='modify' visible='true' lat='52.45951492669' lon='5.51212233192'>
    <tag k='ele' v='0' />
    <tag k='local_x' v='70681.9538' />
    <tag k='local_y' v='15110.4752' />
    <tag k='mgrs_code' v='31UFU706151' />
  </node>
  <node id='-29854' action='modify' visible='true' lat='52.45949391953' lon='5.51215505932'>
    <tag k='ele' v='0' />
    <tag k='local_x' v='70684.0681' />
    <tag k='local_y' v='15108.4373' />
    <tag k='mgrs_code' v='31UFU706151' />
  </node>
  <node id='-29855' action='modify' visible='true' lat='52.45998247747' lon='5.51295221745'>
    <tag k='ele' v='0' />
    <tag k='local_x' v='70735.6208' />
    <tag k='local_y' v='15163.3301' />
    <tag k='mgrs_code' v='31UFU707151' />
  </node>
  <node id='-29856' action='modify' visible='true' lat='52.45995852627' lon='5.512990825'>
    <tag k='ele' v='0' />
    <tag k='local_x' v='70737.6762' />
    <tag k='local_y' v='15161.3718' />
    <tag k='mgrs_code' v='31UFU707151' />
  </node>
  <node id='-29861' action='modify' visible='true' lat='52.45886074507' lon='5.51082295555'>
    <tag k='ele' v='0' />
    <tag k='local_x' v='70601.6555' />
    <tag k='local_y' v='15035.2186' />
    <tag k='mgrs_code' v='31UFU706150' />
  </node>
  <node id='-29862' action='modify' visible='true' lat='52.45884171139' lon='5.51092756701'>
    <tag k='ele' v='0' />
    <tag k='local_x' v='70604.463' />
    <tag k='local_y' v='15032.5185' />
    <tag k='mgrs_code' v='31UFU706150' />
  </node>
  <node id='-29863' action='modify' visible='true' lat='52.45890566618' lon='5.51104348538'>
    <tag k='ele' v='0' />
    <tag k='local_x' v='70608.5672' />
    <tag k='local_y' v='15036.4598' />
    <tag k='mgrs_code' v='31UFU706150' />
  </node>
  <node id='-29864' action='modify' visible='true' lat='52.45898666964' lon='5.51105941284'>
    <tag k='ele' v='0' />
    <tag k='local_x' v='70605.8313' />
    <tag k='local_y' v='15039.0714' />
    <tag k='mgrs_code' v='31UFU706150' />
  </node>
  <node id='-29865' action='modify' visible='true' lat='52.45887373926' lon='5.51094807275'>
    <tag k='ele' v='0' />
    <tag k='local_x' v='70603.9212' />
    <tag k='local_y' v='15034.5752' />
    <tag k='mgrs_code' v='31UFU706150' />
  </node>
  <node id='-29866' action='modify' visible='true' lat='52.45889580288' lon='5.51098843091'>
    <tag k='ele' v='0' />
    <tag k='local_x' v='70606.5774' />
    <tag k='local_y' v='15037.1241' />
    <tag k='mgrs_code' v='31UFU706150' />
  </node>
  <node id='-30839' action='modify' visible='true' lat='52.45948728136' lon='5.51212979464' />
  <node id='-30840' action='modify' visible='true' lat='52.45949790449' lon='5.51210934279' />
  <node id='-30852' action='modify' visible='true' lat='52.45948969125' lon='5.51212516904'>
    <tag k='colour' v='green' />
    <tag k='ele' v='3' />
  </node>
  <node id='-30854' action='modify' visible='true' lat='52.4594954912' lon='5.51211396348'>
    <tag k='colour' v='red' />
    <tag k='ele' v='3' />
  </node>
  <node id='-30872' action='modify' visible='true' lat='52.45995455352' lon='5.51295128925'>
    <tag k='colour' v='green' />
    <tag k='ele' v='3' />
  </node>
  <node id='-30873' action='modify' visible='true' lat='52.45996276666' lon='5.512935463' />
  <node id='-30874' action='modify' visible='true' lat='52.45995214364' lon='5.51295591485' />
  <node id='-30875' action='modify' visible='true' lat='52.45996035341' lon='5.51294008369'>
    <tag k='colour' v='red' />
    <tag k='ele' v='3' />
  </node>
  <node id='-30916' action='modify' visible='true' lat='52.459820963' lon='5.51266169753' />
  <node id='-30917' action='modify' visible='true' lat='52.45979732361' lon='5.51269710516' />
  <node id='-30935' action='modify' visible='true' lat='52.45904897251' lon='5.51130350645' />
  <way id='-7828' visible='true'>
    <nd ref='-29716' />
    <nd ref='-29719' />
    <nd ref='-29720' />
    <nd ref='-29721' />
    <nd ref='-29722' />
    <nd ref='-29723' />
    <nd ref='-29724' />
    <nd ref='-29725' />
    <nd ref='-29726' />
    <nd ref='-29727' />
    <nd ref='-29728' />
    <nd ref='-29729' />
    <nd ref='-29730' />
    <nd ref='-29731' />
    <nd ref='-29732' />
    <nd ref='-29733' />
    <nd ref='-29734' />
    <nd ref='-29735' />
    <nd ref='-29736' />
    <nd ref='-29737' />
    <nd ref='-29738' />
    <nd ref='-29739' />
    <nd ref='-29740' />
    <nd ref='-29741' />
    <nd ref='-29742' />
    <tag k='ele' v='3.0' />
    <tag k='subtype' v='solid' />
    <tag k='type' v='line_thin' />
  </way>
  <way id='-7829' action='modify' visible='true'>
    <nd ref='-29718' />
    <nd ref='-29772' />
    <nd ref='-29773' />
    <nd ref='-29774' />
    <nd ref='-29775' />
    <nd ref='-29776' />
    <nd ref='-29777' />
    <nd ref='-30935' />
    <nd ref='-29778' />
    <nd ref='-29779' />
    <nd ref='-29780' />
    <nd ref='-29781' />
    <nd ref='-29782' />
    <nd ref='-29783' />
    <nd ref='-29784' />
    <nd ref='-29785' />
    <nd ref='-29786' />
    <nd ref='-29787' />
    <nd ref='-29771' />
    <tag k='ele' v='3.0' />
    <tag k='subtype' v='solid' />
    <tag k='type' v='line_thin' />
  </way>
  <way id='-7830' visible='true'>
    <nd ref='-29744' />
    <nd ref='-29745' />
    <nd ref='-29746' />
    <nd ref='-29747' />
    <nd ref='-29748' />
    <nd ref='-29749' />
    <nd ref='-29750' />
    <nd ref='-29751' />
    <nd ref='-29752' />
    <nd ref='-29753' />
    <nd ref='-29754' />
    <nd ref='-29755' />
    <nd ref='-29756' />
    <nd ref='-29757' />
    <nd ref='-29758' />
    <nd ref='-29759' />
    <nd ref='-29760' />
    <nd ref='-29761' />
    <nd ref='-29762' />
    <nd ref='-29763' />
    <nd ref='-29764' />
    <nd ref='-29765' />
    <nd ref='-29766' />
    <tag k='ele' v='3.0' />
    <tag k='subtype' v='solid' />
    <tag k='type' v='line_thin' />
  </way>
  <way id='-7831' action='modify' visible='true'>
    <nd ref='-29771' />
    <nd ref='-29788' />
    <nd ref='-29789' />
    <nd ref='-29790' />
    <nd ref='-29791' />
    <nd ref='-29792' />
    <nd ref='-29793' />
    <nd ref='-29794' />
    <nd ref='-29795' />
    <nd ref='-29796' />
    <nd ref='-29797' />
    <nd ref='-29798' />
    <nd ref='-29799' />
    <nd ref='-29800' />
    <nd ref='-29801' />
    <nd ref='-29802' />
    <nd ref='-29803' />
    <nd ref='-29804' />
    <nd ref='-29805' />
    <nd ref='-29806' />
    <nd ref='-29807' />
    <nd ref='-29808' />
    <nd ref='-29809' />
    <nd ref='-29810' />
    <nd ref='-29811' />
    <nd ref='-29812' />
    <nd ref='-29813' />
    <nd ref='-29814' />
    <nd ref='-29815' />
    <nd ref='-29816' />
    <nd ref='-29817' />
    <nd ref='-29818' />
    <nd ref='-29819' />
    <nd ref='-29820' />
    <tag k='ele' v='3.0' />
    <tag k='lane_change' v='yes' />
    <tag k='subtype' v='dashed' />
    <tag k='type' v='line_thin' />
  </way>
  <way id='-7832' visible='true'>
    <nd ref='-29821' />
    <nd ref='-29822' />
    <nd ref='-29823' />
    <nd ref='-29824' />
    <nd ref='-29825' />
    <nd ref='-29826' />
    <nd ref='-29827' />
    <nd ref='-29828' />
    <nd ref='-29829' />
    <nd ref='-29830' />
    <nd ref='-29831' />
    <nd ref='-29832' />
    <nd ref='-29833' />
    <nd ref='-29834' />
    <nd ref='-29835' />
    <nd ref='-29836' />
    <nd ref='-29837' />
    <nd ref='-29838' />
    <nd ref='-29839' />
    <nd ref='-29840' />
    <nd ref='-29841' />
    <nd ref='-29842' />
    <nd ref='-29820' />
    <tag k='ele' v='3.0' />
    <tag k='subtype' v='solid' />
    <tag k='type' v='line_thin' />
  </way>
  <way id='-7833' visible='true'>
    <nd ref='-29820' />
    <nd ref='-29843' />
    <nd ref='-29821' />
    <tag k='ele' v='3.0' />
    <tag k='subtype' v='solid' />
    <tag k='type' v='line_thin' />
  </way>
  <way id='-7834' action='modify' visible='true'>
    <nd ref='-30917' />
    <nd ref='-29854' />
    <nd ref='-29851' />
    <nd ref='-29850' />
    <nd ref='-29718' />
    <tag k='ele' v='3.0' />
    <tag k='subtype' v='solid' />
    <tag k='type' v='line_thin' />
  </way>
  <way id='-7835' action='modify' visible='true'>
    <nd ref='-30916' />
    <nd ref='-29853' />
    <nd ref='-29852' />
    <nd ref='-29849' />
    <nd ref='-29716' />
    <tag k='ele' v='3.0' />
    <tag k='subtype' v='solid' />
    <tag k='type' v='line_thin' />
  </way>
  <way id='-7836' visible='true'>
    <nd ref='-29742' />
    <nd ref='-29743' />
    <nd ref='-29845' />
    <nd ref='-29847' />
    <nd ref='-29844' />
    <tag k='ele' v='3.0' />
    <tag k='subtype' v='solid' />
    <tag k='type' v='line_thin' />
  </way>
  <way id='-7837' visible='true'>
    <nd ref='-29844' />
    <nd ref='-29744' />
    <tag k='ele' v='3.0' />
    <tag k='subtype' v='solid' />
    <tag k='type' v='line_thin' />
  </way>
  <way id='-7838' visible='true'>
    <nd ref='-29766' />
    <nd ref='-29767' />
    <nd ref='-29768' />
    <nd ref='-29769' />
    <nd ref='-29848' />
    <nd ref='-29846' />
    <nd ref='-29770' />
    <nd ref='-29771' />
    <tag k='ele' v='3.0' />
    <tag k='subtype' v='solid' />
    <tag k='type' v='line_thin' />
  </way>
  <way id='-7839' visible='true'>
    <nd ref='-29845' />
    <nd ref='-29846' />
    <tag k='type' v='pedestrian_marking' />
  </way>
  <way id='-7840' visible='true'>
    <nd ref='-29847' />
    <nd ref='-29848' />
    <tag k='type' v='pedestrian_marking' />
  </way>
  <way id='-7841' visible='true'>
    <nd ref='-29849' />
    <nd ref='-29850' />
    <tag k='type' v='pedestrian_marking' />
  </way>
  <way id='-7842' visible='true'>
    <nd ref='-29851' />
    <nd ref='-29852' />
    <tag k='type' v='pedestrian_marking' />
  </way>
  <way id='-7843' action='modify' visible='true'>
    <nd ref='-29853' />
    <nd ref='-29854' />
    <tag k='type' v='stop_line' />
  </way>
  <way id='-7844' action='modify' visible='true'>
    <nd ref='-29855' />
    <nd ref='-29856' />
    <tag k='type' v='stop_line' />
  </way>
  <way id='-7847' visible='true'>
    <nd ref='-29865' />
    <nd ref='-29866' />
    <tag k='type' v='parking_space' />
    <tag k='width' v='2' />
  </way>
  <way id='-7848' visible='true'>
    <nd ref='-29861' />
    <nd ref='-29862' />
    <nd ref='-29863' />
    <nd ref='-29864' />
    <tag k='area' v='yes' />
    <tag k='type' v='parking_lot' />
  </way>
  <way id='-8819' action='modify' visible='true'>
    <nd ref='-30839' />
    <nd ref='-30840' />
    <tag k='height' v='1.2' />
    <tag k='subtype' v='red_green' />
    <tag k='type' v='traffic_light' />
  </way>
  <way id='-8869' action='modify' visible='true'>
    <nd ref='-30852' />
    <nd ref='-30854' />
    <tag k='traffic_light_id' v='-8819' />
    <tag k='type' v='light_bulbs' />
  </way>
  <way id='-8886' action='modify' visible='true'>
    <nd ref='-30874' />
    <nd ref='-30873' />
    <tag k='height' v='1.2' />
    <tag k='subtype' v='red_green' />
    <tag k='type' v='traffic_light' />
  </way>
  <way id='-8887' action='modify' visible='true'>
    <nd ref='-30872' />
    <nd ref='-30875' />
    <tag k='traffic_light_id' v='-8886' />
    <tag k='type' v='light_bulbs' />
  </way>
  <way id='-8934' action='modify' visible='true'>
    <nd ref='-29717' />
    <nd ref='-29856' />
    <nd ref='-30917' />
    <tag k='ele' v='3.0' />
    <tag k='subtype' v='solid' />
    <tag k='type' v='line_thin' />
  </way>
  <way id='-8937' action='modify' visible='true'>
    <nd ref='-29715' />
    <nd ref='-29855' />
    <nd ref='-30916' />
    <tag k='ele' v='3.0' />
    <tag k='subtype' v='solid' />
    <tag k='type' v='line_thin' />
  </way>
  <relation id='-747' action='modify' visible='true'>
    <member type='relation' ref='-775' role='regulatory_element' />
    <member type='way' ref='-7834' role='left' />
    <member type='way' ref='-7835' role='right' />
    <tag k='location' v='urban' />
    <tag k='speed_limit' v='20' />
    <tag k='subtype' v='road' />
    <tag k='type' v='lanelet' />
  </relation>
  <relation id='-748' action='modify' visible='true'>
    <member type='way' ref='-7829' role='left' />
    <member type='way' ref='-7828' role='right' />
    <tag k='location' v='urban' />
    <tag k='speed_limit' v='20' />
    <tag k='subtype' v='road' />
    <tag k='type' v='lanelet' />
  </relation>
  <relation id='-749' action='modify' visible='true'>
    <member type='way' ref='-7831' role='left' />
    <member type='way' ref='-7836' role='right' />
    <tag k='location' v='urban' />
    <tag k='speed_limit' v='20' />
    <tag k='subtype' v='road' />
    <tag k='type' v='lanelet' />
  </relation>
  <relation id='-750' action='modify' visible='true'>
    <member type='way' ref='-7833' role='left' />
    <member type='way' ref='-7837' role='right' />
    <tag k='location' v='urban' />
    <tag k='speed_limit' v='20' />
    <tag k='subtype' v='road' />
    <tag k='type' v='lanelet' />
  </relation>
  <relation id='-751' action='modify' visible='true'>
    <member type='way' ref='-7832' role='left' />
    <member type='way' ref='-7830' role='right' />
    <tag k='location' v='urban' />
    <tag k='speed_limit' v='20' />
    <tag k='subtype' v='road' />
    <tag k='type' v='lanelet' />
  </relation>
  <relation id='-752' action='modify' visible='true'>
    <member type='way' ref='-7831' role='left' />
    <member type='way' ref='-7838' role='right' />
    <tag k='location' v='urban' />
    <tag k='speed_limit' v='20' />
    <tag k='subtype' v='road' />
    <tag k='type' v='lanelet' />
  </relation>
  <relation id='-753' action='modify' visible='true'>
    <member type='way' ref='-7839' role='left' />
    <member type='way' ref='-7840' role='right' />
    <tag k='location' v='urban' />
    <tag k='participant:pedestrian' v='yes' />
    <tag k='speed_limit' v='20' />
    <tag k='subtype' v='crosswalk' />
    <tag k='type' v='lanelet' />
  </relation>
  <relation id='-754' action='modify' visible='true'>
    <member type='way' ref='-7842' role='left' />
    <member type='way' ref='-7841' role='right' />
    <tag k='location' v='urban' />
    <tag k='participant:pedestrian' v='yes' />
    <tag k='speed_limit' v='20' />
    <tag k='subtype' v='crosswalk' />
    <tag k='type' v='lanelet' />
  </relation>
  <relation id='-755' action='modify' visible='true'>
    <member type='way' ref='-7831' role='right' />
    <member type='way' ref='-7836' role='left' />
    <tag k='location' v='urban' />
    <tag k='speed_limit' v='20' />
    <tag k='subtype' v='road' />
    <tag k='type' v='lanelet' />
  </relation>
  <relation id='-756' action='modify' visible='true'>
    <member type='way' ref='-7831' role='right' />
    <member type='way' ref='-7838' role='left' />
    <tag k='location' v='urban' />
    <tag k='speed_limit' v='20' />
    <tag k='subtype' v='road' />
    <tag k='type' v='lanelet' />
  </relation>
  <relation id='-775' action='modify' visible='true'>
    <member type='way' ref='-8869' role='light_bulbs' />
    <member type='way' ref='-8819' role='refers' />
    <member type='way' ref='-7843' role='ref_line' />
    <tag k='subtype' v='traffic_light' />
    <tag k='type' v='regulatory_element' />
  </relation>
  <relation id='-784' action='modify' visible='true'>
    <member type='way' ref='-8887' role='light_bulbs' />
    <member type='way' ref='-7844' role='ref_line' />
    <member type='way' ref='-8886' role='refers' />
    <tag k='subtype' v='traffic_light' />
    <tag k='type' v='regulatory_element' />
  </relation>
  <relation id='-799' action='modify' visible='true'>
    <member type='relation' ref='-784' role='regulatory_element' />
    <member type='way' ref='-8934' role='left' />
    <member type='way' ref='-8937' role='right' />
    <tag k='location' v='urban' />
    <tag k='speed_limit' v='20' />
    <tag k='subtype' v='road' />
    <tag k='type' v='lanelet' />
  </relation>
</osm>
